[
    {
        "Altitude(m)": 717062.0922882601,
        "Argument of Periapsis(deg)": 0.009112096949301655,
        "Eccentricity": 0.0,
        "Inclination(deg)": 45.0,
        "Latitude(deg)": -43.16215886696586,
        "Longitude(deg)": 73.26155875223985,
        "Mean Anomaly(deg)": -105.31892668201533,
        "RAAN(deg)": 284.9913984468334,
        "Satellite Name": "Constellation 1 1269",
        "Satellite Number": 1269,
        "Semi-Major Axis(m)": 7083131.272910544,
        "Time(s)": 152
    },
    {
        "Altitude(m)": 717068.4703393128,
        "Argument of Periapsis(deg)": 0.009172044955547059,
        "Eccentricity": 0.0,
        "Inclination(deg)": 45.0,
        "Latitude(deg)": -43.177593014650995,
        "Longitude(deg)": 73.33754633719828,
        "Mean Anomaly(deg)": -105.25822554176548,
        "RAAN(deg)": 284.9913418576678,
        "Satellite Name": "Constellation 1 1269",
        "Satellite Number": 1269,
        "Semi-Major Axis(m)": 7083131.272910544,
        "Time(s)": 153
    },
    {
        "Altitude(m)": 717074.8249881511,
        "Argument of Periapsis(deg)": 0.009231992961792466,
        "Eccentricity": 0.0,
        "Inclination(deg)": 45.0,
        "Latitude(deg)": -43.192971028986655,
        "Longitude(deg)": 73.41357411083403,
        "Mean Anomaly(deg)": -105.19752440151555,
        "RAAN(deg)": 284.9912852685023,
        "Satellite Name": "Constellation 1 1269",
        "Satellite Number": 1269,
        "Semi-Major Axis(m)": 7083131.272910544,
        "Time(s)": 154
    },
    {
        "Altitude(m)": 717081.1562113847,
        "Argument of Periapsis(deg)": 0.009291940968037872,
        "Eccentricity": 0.0,
        "Inclination(deg)": 45.0,
        "Latitude(deg)": -43.208292852373816,
        "Longitude(deg)": 73.48964196838494,
        "Mean Anomaly(deg)": -105.13682326126568,
        "RAAN(deg)": 284.9912286793367,
        "Satellite Name": "Constellation 1 1269",
        "Satellite Number": 1269,
        "Semi-Major Axis(m)": 7083131.272910544,
        "Time(s)": 155
    },
    {
        "Altitude(m)": 717087.4639857024,
        "Argument of Periapsis(deg)": 0.009351888974283276,
        "Eccentricity": 0.0,
        "Inclination(deg)": 45.0,
        "Latitude(deg)": -43.223558427350724,
        "Longitude(deg)": 73.565749636438,
        "Mean Anomaly(deg)": -105.07612212101573,
        "RAAN(deg)": 284.9911720901712,
        "Satellite Name": "Constellation 1 1269",
        "Satellite Number": 1269,
        "Semi-Major Axis(m)": 7083131.272910544,
        "Time(s)": 156
    },
    {
        "Altitude(m)": 717093.7482878875,
        "Argument of Periapsis(deg)": 0.00941183698052868,
        "Eccentricity": 0.0,
        "Inclination(deg)": 45.0,
        "Latitude(deg)": -43.23876769659321,
        "Longitude(deg)": 73.64189734531533,
        "Mean Anomaly(deg)": -105.01542098076587,
        "RAAN(deg)": 284.9911155010056,
        "Satellite Name": "Constellation 1 1269",
        "Satellite Number": 1269,
        "Semi-Major Axis(m)": 7083131.272910544,
        "Time(s)": 157
    },
    {
        "Altitude(m)": 717100.0090947949,
        "Argument of Periapsis(deg)": 0.009471784986774088,
        "Eccentricity": 0.0,
        "Inclination(deg)": 45.0,
        "Latitude(deg)": -43.2539206029164,
        "Longitude(deg)": 73.71808482049539,
        "Mean Anomaly(deg)": -104.95471984051596,
        "RAAN(deg)": 284.99105891183996,
        "Satellite Name": "Constellation 1 1269",
        "Satellite Number": 1269,
        "Semi-Major Axis(m)": 7083131.272910544,
        "Time(s)": 158
    },
    {
        "Altitude(m)": 717106.246383386,
        "Argument of Periapsis(deg)": 0.009531732993019492,
        "Eccentricity": 0.0,
        "Inclination(deg)": 45.0,
        "Latitude(deg)": -43.269017089275,
        "Longitude(deg)": 73.79431195499981,
        "Mean Anomaly(deg)": -104.89401870026613,
        "RAAN(deg)": 284.99100232267443,
        "Satellite Name": "Constellation 1 1269",
        "Satellite Number": 1269,
        "Semi-Major Axis(m)": 7083131.272910544,
        "Time(s)": 159
    },
    {
        "Altitude(m)": 717112.4601306847,
        "Argument of Periapsis(deg)": 0.009591680999264898,
        "Eccentricity": 0.0,
        "Inclination(deg)": 45.0,
        "Latitude(deg)": -43.284057098764535,
        "Longitude(deg)": 73.87057864129675,
        "Mean Anomaly(deg)": -104.83331756001617,
        "RAAN(deg)": 284.99094573350885,
        "Satellite Name": "Constellation 1 1269",
        "Satellite Number": 1269,
        "Semi-Major Axis(m)": 7083131.272910544,
        "Time(s)": 160
    },
    {
        "Altitude(m)": 717118.6503138135,
        "Argument of Periapsis(deg)": 0.009651629005510304,
        "Eccentricity": 0.0,
        "Inclination(deg)": 45.0,
        "Latitude(deg)": -43.299040574622005,
        "Longitude(deg)": 73.94688477130154,
        "Mean Anomaly(deg)": -104.77261641976624,
        "RAAN(deg)": 284.9908891443433,
        "Satellite Name": "Constellation 1 1269",
        "Satellite Number": 1269,
        "Semi-Major Axis(m)": 7083131.272910544,
        "Time(s)": 161
    },
    {
        "Altitude(m)": 717124.8169099832,
        "Argument of Periapsis(deg)": 0.00971157701175571,
        "Eccentricity": 0.0,
        "Inclination(deg)": 45.0,
        "Latitude(deg)": -43.31396746022685,
        "Longitude(deg)": 74.02323023637692,
        "Mean Anomaly(deg)": -104.71191527951638,
        "RAAN(deg)": 284.99083255517775,
        "Satellite Name": "Constellation 1 1269",
        "Satellite Number": 1269,
        "Semi-Major Axis(m)": 7083131.272910544,
        "Time(s)": 162
    },
    {
        "Altitude(m)": 717130.9598964826,
        "Argument of Periapsis(deg)": 0.009771525018001118,
        "Eccentricity": 0.0,
        "Inclination(deg)": 45.0,
        "Latitude(deg)": -43.32883769910218,
        "Longitude(deg)": 74.09961475923727,
        "Mean Anomaly(deg)": -104.65121413926647,
        "RAAN(deg)": 284.9907759660121,
        "Satellite Name": "Constellation 1 1269",
        "Satellite Number": 1269,
        "Semi-Major Axis(m)": 7083131.272910544,
        "Time(s)": 163
    },
    {
        "Altitude(m)": 717137.0792506923,
        "Argument of Periapsis(deg)": 0.00983147302424652,
        "Eccentricity": 0.0,
        "Inclination(deg)": 45.0,
        "Latitude(deg)": -43.34365123491495,
        "Longitude(deg)": 74.17603856633546,
        "Mean Anomaly(deg)": -104.59051299901652,
        "RAAN(deg)": 284.9907193768466,
        "Satellite Name": "Constellation 1 1269",
        "Satellite Number": 1269,
        "Semi-Major Axis(m)": 7083131.272910544,
        "Time(s)": 164
    },
    {
        "Altitude(m)": 717143.1749500718,
        "Argument of Periapsis(deg)": 0.009891421030491928,
        "Eccentricity": 0.0,
        "Inclination(deg)": 45.0,
        "Latitude(deg)": -43.35840801147762,
        "Longitude(deg)": 74.25250137928279,
        "Mean Anomaly(deg)": -104.52981185876665,
        "RAAN(deg)": 284.990662787681,
        "Satellite Name": "Constellation 1 1269",
        "Satellite Number": 1269,
        "Semi-Major Axis(m)": 7083131.272910544,
        "Time(s)": 165
    },
    {
        "Altitude(m)": 717149.246972179,
        "Argument of Periapsis(deg)": 0.009951369036737332,
        "Eccentricity": 0.0,
        "Inclination(deg)": 45.0,
        "Latitude(deg)": -43.37310797274867,
        "Longitude(deg)": 74.32900308723696,
        "Mean Anomaly(deg)": -104.46911071851682,
        "RAAN(deg)": 284.9906061985155,
        "Satellite Name": "Constellation 1 1269",
        "Satellite Number": 1269,
        "Semi-Major Axis(m)": 7083131.272910544,
        "Time(s)": 166
    },
    {
        "Altitude(m)": 717155.2952946482,
        "Argument of Periapsis(deg)": 0.010011317042982738,
        "Eccentricity": 0.0,
        "Inclination(deg)": 45.0,
        "Latitude(deg)": -43.38775106283364,
        "Longitude(deg)": 74.40554357880559,
        "Mean Anomaly(deg)": -104.40840957826687,
        "RAAN(deg)": 284.9905496093499,
        "Satellite Name": "Constellation 1 1269",
        "Satellite Number": 1269,
        "Semi-Major Axis(m)": 7083131.272910544,
        "Time(s)": 167
    },
    {
        "Altitude(m)": 717161.3198952,
        "Argument of Periapsis(deg)": 0.010071265049228144,
        "Eccentricity": 0.0,
        "Inclination(deg)": 45.0,
        "Latitude(deg)": -43.4023372259858,
        "Longitude(deg)": 74.48212274204633,
        "Mean Anomaly(deg)": -104.34770843801698,
        "RAAN(deg)": 284.99049302018426,
        "Satellite Name": "Constellation 1 1269",
        "Satellite Number": 1269,
        "Semi-Major Axis(m)": 7083131.272910544,
        "Time(s)": 168
    },
    {
        "Altitude(m)": 717167.3207516479,
        "Argument of Periapsis(deg)": 0.01013121305547355,
        "Eccentricity": 0.0,
        "Inclination(deg)": 45.0,
        "Latitude(deg)": -43.41686640660731,
        "Longitude(deg)": 74.55874046446779,
        "Mean Anomaly(deg)": -104.28700729776712,
        "RAAN(deg)": 284.99043643101874,
        "Satellite Name": "Constellation 1 1269",
        "Satellite Number": 1269,
        "Semi-Major Axis(m)": 7083131.272910544,
        "Time(s)": 169
    },
    {
        "Altitude(m)": 717173.297841891,
        "Argument of Periapsis(deg)": 0.010191161061718957,
        "Eccentricity": 0.0,
        "Inclination(deg)": 45.0,
        "Latitude(deg)": -43.431338549250064,
        "Longitude(deg)": 74.63539663303035,
        "Mean Anomaly(deg)": -104.22630615751717,
        "RAAN(deg)": 284.99037984185316,
        "Satellite Name": "Constellation 1 1269",
        "Satellite Number": 1269,
        "Semi-Major Axis(m)": 7083131.272910544,
        "Time(s)": 170
    }
]